{"type": "FeatureCollection", "features": [ {"type": "Feature", "properties": {"norad_id": 35453, "name": "COSMOS 2251 DEB", "group": "cosmos-2251-debris", "lat": -24.16907533795787, "lon": -132.96886969195225, "alt_km": 727.909696338651, "timestamp": "2025-12-02T07:10:09.512500+00:00", "meta": {"OBJECT_NAME": "COSMOS 2251 DEB", "OBJECT_ID": "1993-036AKX", "EPOCH": "2025-11-29T13:05:55.541472", "MEAN_MOTION": 14.37887031, "ECCENTRICITY": 0.00682488, "INCLINATION": 74.0102, "RA_OF_ASC_NODE": 44.7136, "ARG_OF_PERICENTER": 181.7658, "MEAN_ANOMALY": 178.3266, "EPHEMERIS_TYPE": 0, "CLASSIFICATION_TYPE": "U", "NORAD_CAT_ID": 35453, "ELEMENT_SET_NO": 999, "REV_AT_EPOCH": 86029, "BSTAR": 0.00074250285, "MEAN_MOTION_DOT": 2.276e-05, "MEAN_MOTION_DDOT": 0}, "tle": {"line1": "1 35453U 93036AKX 25333.54578173  .00002276  00000+0  74250-3 0  9994", "line2": "2 35453  74.0102  44.7136 0068248 181.7658 178.3266 14.37887031860295"}}, "geometry": {"type": "Point", "coordinates": [-132.96886969195225, -24.16907533795787]}}, {"type": "Feature", "properties": {"norad_id": 35455, "name": "COSMOS 2251 DEB", "group": "cosmos-2251-debris", "lat": -9.608342347730446, "lon": -48.375051641852274, "alt_km": 708.0801338966012, "timestamp": "2025-12-02T07:10:09.512510+00:00", "meta": {"OBJECT_NAME": "COSMOS 2251 DEB", "OBJECT_ID": "1993-036AKZ", "EPOCH": "2025-11-30T05:30:42.694848", "MEAN_MOTION": 14.49175607, "ECCENTRICITY": 0.00985891, "INCLINATION": 74.0281, "RA_OF_ASC_NODE": 318.2852, "ARG_OF_PERICENTER": 65.024, "MEAN_ANOMALY": 296.1121, "EPHEMERIS_TYPE": 0, "CLASSIFICATION_TYPE": "U", "NORAD_CAT_ID": 35455, "ELEMENT_SET_NO": 999, "REV_AT_EPOCH": 86362, "BSTAR": 0.0013090162, "MEAN_MOTION_DOT": 5.276e-05, "MEAN_MOTION_DDOT": 0}, "tle": {"line1": "1 35455U 93036AKZ 25334.22966082  .00005276  00000+0  13090-2 0  9999", "line2": "2 35455  74.0281 318.2852 0098589  65.0240 296.1121 14.49175607863622"}}, "geometry": {"type": "Point", "coordinates": [-48.375051641852274, -9.608342347730446]}}, {"type": "Feature", "properties": {"norad_id": 35456, "name": "COSMOS 2251 DEB", "group": "cosmos-2251-debris", "lat": -36.20877786596174, "lon": 125.6338789774593, "alt_km": 629.4679716549681, "timestamp": "2025-12-02T07:10:09.512520+00:00", "meta": {"OBJECT_NAME": "COSMOS 2251 DEB", "OBJECT_ID": "1993-036ALA", "EPOCH": "2025-12-01T03:33:20.272320", "MEAN_MOTION": 14.6906786, "ECCENTRICITY": 0.00649292, "INCLINATION": 73.9491, "RA_OF_ASC_NODE": 140.0403, "ARG_OF_PERICENTER": 352.5373, "MEAN_ANOMALY": 7.4823, "EPHEMERIS_TYPE": 0, "CLASSIFICATION_TYPE": "U", "NORAD_CAT_ID": 35456, "ELEMENT_SET_NO": 999, "REV_AT_EPOCH": 65705, "BSTAR": 0.0015385209, "MEAN_MOTION_DOT": 9.308e-05, "MEAN_MOTION_DDOT": 0}, "tle": {"line1": "1 35456U 93036ALA 25335.14815130  .00009308  00000+0  15385-2 0  9998", "line2": "2 35456  73.9491 140.0403 0064929 352.5373   7.4823 14.69067860657052"}}, "geometry": {"type": "Point", "coordinates": [125.6338789774593, -36.20877786596174]}}, {"type": "Feature", "properties": {"norad_id": 35459, "name": "COSMOS 2251 DEB", "group": "cosmos-2251-debris", "lat": 71.60524763076651, "lon": -33.78870546344869, "alt_km": 753.5844024362832, "timestamp": "2025-12-02T07:10:09.512530+00:00", "meta": {"OBJECT_NAME": "COSMOS 2251 DEB", "OBJECT_ID": "1993-036ALD", "EPOCH": "2025-12-01T08:59:47.161824", "MEAN_MOTION": 14.37435362, "ECCENTRICITY": 0.00166894, "INCLINATION": 73.8706, "RA_OF_ASC_NODE": 208.4061, "ARG_OF_PERICENTER": 159.9873, "MEAN_ANOMALY": 200.1938, "EPHEMERIS_TYPE": 0, "CLASSIFICATION_TYPE": "U", "NORAD_CAT_ID": 35459, "ELEMENT_SET_NO": 999, "REV_AT_EPOCH": 58198, "BSTAR": 0.00028227897, "MEAN_MOTION_DOT": 8.18e-06, "MEAN_MOTION_DDOT": 0}, "tle": {"line1": "1 35459U 93036ALD 25335.37485141  .00000818  00000+0  28228-3 0  9999", "line2": "2 35459  73.8706 208.4061 0016689 159.9873 200.1938 14.37435362581984"}}, "geometry": {"type": "Point", "coordinates": [-33.78870546344869, 71.60524763076651]}}, {"type": "Feature", "properties": {"norad_id": 35462, "name": "COSMOS 2251 DEB", "group": "cosmos-2251-debris", "lat": 62.28089115030827, "lon": 74.63563156539385, "alt_km": 840.9682245107524, "timestamp": "2025-12-02T07:10:09.512541+00:00", "meta": {"OBJECT_NAME": "COSMOS 2251 DEB", "OBJECT_ID": "1993-036ALG", "EPOCH": "2025-12-01T03:45:45.448128", "MEAN_MOTION": 14.29124029, "ECCENTRICITY": 0.00870444, "INCLINATION": 74.036, "RA_OF_ASC_NODE": 289.718, "ARG_OF_PERICENTER": 327.319, "MEAN_ANOMALY": 32.2589, "EPHEMERIS_TYPE": 0, "CLASSIFICATION_TYPE": "U", "NORAD_CAT_ID": 35462, "ELEMENT_SET_NO": 999, "REV_AT_EPOCH": 66215, "BSTAR": 0.0017949723, "MEAN_MOTION_DOT": 4.718e-05, "MEAN_MOTION_DDOT": 0}, "tle": {"line1": "1 35462U 93036ALG 25335.15677602  .00004718  00000+0  17950-2 0  9996", "line2": "2 35462  74.0360 289.7180 0087044 327.3190  32.2589 14.29124029662158"}}, "geometry": {"type": "Point", "coordinates": [74.63563156539385, 62.28089115030827]}}, {"type": "Feature", "properties": {"norad_id": 35465, "name": "COSMOS 2251 DEB", "group": "cosmos-2251-debris", "lat": -33.858214048444964, "lon": -154.6004059090507, "alt_km": 723.7892327243799, "timestamp": "2025-12-02T07:10:09.512550+00:00", "meta": {"OBJECT_NAME": "COSMOS 2251 DEB", "OBJECT_ID": "1993-036ALK", "EPOCH": "2025-11-29T22:48:34.232544", "MEAN_MOTION": 14.44263019, "ECCENTRICITY": 0.00634289, "INCLINATION": 73.9997, "RA_OF_ASC_NODE": 220.8763, "ARG_OF_PERICENTER": 24.0529, "MEAN_ANOMALY": 336.3567, "EPHEMERIS_TYPE": 0, "CLASSIFICATION_TYPE": "U", "NORAD_CAT_ID": 35465, "ELEMENT_SET_NO": 999, "REV_AT_EPOCH": 87057, "BSTAR": 0.00049692277, "MEAN_MOTION_DOT": 1.723e-05, "MEAN_MOTION_DDOT": 0}, "tle": {"line1": "1 35465U 93036ALK 25333.95039621  .00001723  00000+0  49692-3 0  9990", "line2": "2 35465  73.9997 220.8763 0063428  24.0529 336.3567 14.44263019870576"}}, "geometry": {"type": "Point", "coordinates": [-154.6004059090507, -33.858214048444964]}}, {"type": "Feature", "properties": {"norad_id": 35469, "name": "COSMOS 2251 DEB", "group": "cosmos-2251-debris", "lat": -42.707801561326875, "lon": 28.156796532946206, "alt_km": 754.5084967217736, "timestamp": "2025-12-02T07:10:09.512561+00:00", "meta": {"OBJECT_NAME": "COSMOS 2251 DEB", "OBJECT_ID": "1993-036ALP", "EPOCH": "2025-12-01T11:30:18.514944", "MEAN_MOTION": 14.49801168, "ECCENTRICITY": 0.00774879, "INCLINATION": 74.0179, "RA_OF_ASC_NODE": 45.0354, "ARG_OF_PERICENTER": 203.0672, "MEAN_ANOMALY": 156.7004, "EPHEMERIS_TYPE": 0, "CLASSIFICATION_TYPE": "U", "NORAD_CAT_ID": 35469, "ELEMENT_SET_NO": 999, "REV_AT_EPOCH": 87948, "BSTAR": 0.0001544866, "MEAN_MOTION_DOT": 5.89e-06, "MEAN_MOTION_DDOT": 0}, "tle": {"line1": "1 35469U 93036ALP 25335.47938096  .00000589  00000+0  15449-3 0  9999", "line2": "2 35469  74.0179  45.0354 0077487 203.0672 156.7004 14.49801168879482"}}, "geometry": {"type": "Point", "coordinates": [28.156796532946206, -42.707801561326875]}}, {"type": "Feature", "properties": {"norad_id": 35475, "name": "COSMOS 2251 DEB", "group": "cosmos-2251-debris", "lat": 32.61891706394751, "lon": -4.696420059175057, "alt_km": 666.7512699537292, "timestamp": "2025-12-02T07:10:09.512571+00:00", "meta": {"OBJECT_NAME": "COSMOS 2251 DEB", "OBJECT_ID": "1993-036ALV", "EPOCH": "2025-12-01T20:42:06.595776", "MEAN_MOTION": 14.69376541, "ECCENTRICITY": 0.0021347, "INCLINATION": 74.0221, "RA_OF_ASC_NODE": 186.7148, "ARG_OF_PERICENTER": 260.4163, "MEAN_ANOMALY": 99.4595, "EPHEMERIS_TYPE": 0, "CLASSIFICATION_TYPE": "U", "NORAD_CAT_ID": 35475, "ELEMENT_SET_NO": 999, "REV_AT_EPOCH": 65457, "BSTAR": 0.0015058, "MEAN_MOTION_DOT": 8.914e-05, "MEAN_MOTION_DDOT": 0}, "tle": {"line1": "1 35475U 93036ALV 25335.86257634  .00008914  00000+0  15058-2 0  9996", "line2": "2 35475  74.0221 186.7148 0021347 260.4163  99.4595 14.69376541654570"}}, "geometry": {"type": "Point", "coordinates": [-4.696420059175057, 32.61891706394751]}}, {"type": "Feature", "properties": {"norad_id": 35476, "name": "COSMOS 2251 DEB", "group": "cosmos-2251-debris", "lat": 47.80813581316797, "lon": -117.0736185267323, "alt_km": 633.5524621559161, "timestamp": "2025-12-02T07:10:09.512581+00:00", "meta": {"OBJECT_NAME": "COSMOS 2251 DEB", "OBJECT_ID": "1993-036ALW", "EPOCH": "2025-12-01T18:07:58.546272", "MEAN_MOTION": 14.75256921, "ECCENTRICITY": 0.0017244, "INCLINATION": 73.9778, "RA_OF_ASC_NODE": 82.4733, "ARG_OF_PERICENTER": 71.028, "MEAN_ANOMALY": 54.6813, "EPHEMERIS_TYPE": 0, "CLASSIFICATION_TYPE": "U", "NORAD_CAT_ID": 35476, "ELEMENT_SET_NO": 999, "REV_AT_EPOCH": 87725, "BSTAR": 0.001969, "MEAN_MOTION_DOT": 0.00013352, "MEAN_MOTION_DDOT": 0}, "tle": {"line1": "1 35476U 93036ALW 25335.75553873  .00013352  00000+0  19690-2 0  9997", "line2": "2 35476  73.9778  82.4733 0017244  71.0280  54.6813 14.75256921877259"}}, "geometry": {"type": "Point", "coordinates": [-117.0736185267323, 47.80813581316797]}}, {"type": "Feature", "properties": {"norad_id": 35580, "name": "COSMOS 2251 DEB", "group": "cosmos-2251-debris", "lat": 62.34004739285183, "lon": -130.0763760475685, "alt_km": 1092.8765718857094, "timestamp": "2025-12-02T07:10:09.512592+00:00", "meta": {"OBJECT_NAME": "COSMOS 2251 DEB", "OBJECT_ID": "1993-036ALX", "EPOCH": "2025-11-11T02:25:47.460864", "MEAN_MOTION": 13.83664367, "ECCENTRICITY": 0.0284653, "INCLINATION": 73.9022, "RA_OF_ASC_NODE": 232.5156, "ARG_OF_PERICENTER": 243.9426, "MEAN_ANOMALY": 113.2144, "EPHEMERIS_TYPE": 0, "CLASSIFICATION_TYPE": "U", "NORAD_CAT_ID": 35580, "ELEMENT_SET_NO": 999, "REV_AT_EPOCH": 61819, "BSTAR": 0.0015271116, "MEAN_MOTION_DOT": 2.282e-05, "MEAN_MOTION_DDOT": 0}, "tle": {"line1": "1 35580U 93036ALX 25315.10124376  .00002282  00000+0  15271-2 0  9993", "line2": "2 35580  73.9022 232.5156 0284653 243.9426 113.2144 13.83664367618196"}}, "geometry": {"type": "Point", "coordinates": [-130.0763760475685, 62.34004739285183]}}]}